[{"OBJECT_NAME":"STARLINK-5360","OBJECT_ID":"2022-177AC","EPOCH":"2026-03-09T22:00:01.999584","MEAN_MOTION":15.18143552,"ECCENTRICITY":0.00022076,"INCLINATION":43.001,"RA_OF_ASC_NODE":130.9365,"ARG_OF_PERICENTER":272.5411,"MEAN_ANOMALY":66.9957,"EPHEMERIS_TYPE":0,"CLASSIFICATION_TYPE":"U","NORAD_CAT_ID":54846,"ELEMENT_SET_NO":999,"REV_AT_EPOCH":573,"BSTAR":0.05662677,"MEAN_MOTION_DOT":0.01273882,"MEAN_MOTION_DDOT":0},{"OBJECT_NAME":"OBJECT F","OBJECT_ID":"2021-022F","EPOCH":"2026-03-09T23:37:37.165152","MEAN_MOTION":15.31317672,"ECCENTRICITY":0.00120882,"INCLINATION":97.3982,"RA_OF_ASC_NODE":329.8375,"ARG_OF_PERICENTER":85.9268,"MEAN_ANOMALY":274.3355,"EPHEMERIS_TYPE":0,"CLASSIFICATION_TYPE":"U","NORAD_CAT_ID":47937,"ELEMENT_SET_NO":999,"REV_AT_EPOCH":27452,"BSTAR":0.00038690553,"MEAN_MOTION_DOT":0.00011656,"MEAN_MOTION_DDOT":0}]
